[{"OBJECT_NAME":"STARLINK-5684","OBJECT_ID":"2023-015E","EPOCH":"2026-03-09T02:39:23.596128","MEAN_MOTION":15.03263735,"ECCENTRICITY":0.00017491,"INCLINATION":43.0044,"RA_OF_ASC_NODE":329.4179,"ARG_OF_PERICENTER":264.1841,"MEAN_ANOMALY":95.8802,"EPHEMERIS_TYPE":0,"CLASSIFICATION_TYPE":"U","NORAD_CAT_ID":55453,"ELEMENT_SET_NO":999,"REV_AT_EPOCH":17066,"BSTAR":0.0059788815,"MEAN_MOTION_DOT":0.00083119,"MEAN_MOTION_DDOT":0},{"OBJECT_NAME":"MINOTAUR 4 R\/B","OBJECT_ID":"2020-046E","EPOCH":"2026-03-09T23:21:28.488960","MEAN_MOTION":15.06543892,"ECCENTRICITY":0.00095926,"INCLINATION":53.9792,"RA_OF_ASC_NODE":306.0413,"ARG_OF_PERICENTER":86.078,"MEAN_ANOMALY":274.1318,"EPHEMERIS_TYPE":0,"CLASSIFICATION_TYPE":"U","NORAD_CAT_ID":45877,"ELEMENT_SET_NO":999,"REV_AT_EPOCH":23396,"BSTAR":0.00016618262,"MEAN_MOTION_DOT":2.204e-5,"MEAN_MOTION_DDOT":0}]
